     2.10           G: GLONASS NAV DATA                     RINEX VERSION / TYPE
teqc  2015Jun23                         20210618 02:25:47UTCPGM / RUN BY / DATE
Linux 2.4.21-27.ELsmp|Opteron|gcc -static|Linux x86_64|=+   COMMENT
  2021     5    25    8.381903171539D-09                    CORR TO SYSTEM TIME
                                                            END OF HEADER
19 21  5 26 18 15  0.0-1.452732831240D-04-9.094947017729D-13 6.480000000000D+04
    3.309514648438D+03-2.121947288513D+00-0.000000000000D+00 0.000000000000D+00
    1.456176318359D+04-1.885569572449D+00 6.519258022308D-09 3.000000000000D+00
   -2.068550976562D+04-1.667279243469D+00-0.000000000000D+00 0.000000000000D+00
20 21  5 26 18 15  0.0-4.979968070984D-05-0.000000000000D+00 6.480000000000D+04
    1.798498193359D+04-3.457298278809D-01-2.793967723846D-09 0.000000000000D+00
    1.747996337891D+04-6.123151779175D-01 4.656612873077D-09 2.000000000000D+00
   -4.781578613281D+03-3.533244132996D+00-1.862645149231D-09 0.000000000000D+00
 5 21  5 26 18 15  0.0 7.245875895023D-05 9.094947017729D-13 6.483000000000D+04
   -6.698158691406D+03-2.588537216187D+00 9.313225746155D-10 0.000000000000D+00
    1.329557177734D+04 1.158779144287D+00-0.000000000000D+00 1.000000000000D+00
    2.072290087891D+04-1.583087921143D+00-3.725290298462D-09 0.000000000000D+00
16 21  5 26 18 45  0.0-1.556333154440D-05-9.094947017729D-13 6.660000000000D+04
   -6.898388671875D+02 1.076660156250D-01 9.313225746155D-10 0.000000000000D+00
    2.523401708984D+04-4.387989044189D-01 4.656612873077D-09-1.000000000000D+00
    3.145375488281D+03 3.531616210938D+00-3.725290298462D-09 0.000000000000D+00
15 21  5 26 18 45  0.0 1.036161556840D-04-0.000000000000D+00 6.660000000000D+04
   -8.985703613281D+03 6.966018676758D-02 9.313225746155D-10 0.000000000000D+00
    1.442238769531D+04-2.603268623352D+00-0.000000000000D+00 0.000000000000D+00
    1.904496972656D+04 2.006018638611D+00-2.793967723846D-09 0.000000000000D+00
 4 21  5 26 18 45  0.0 8.854363113642D-05 1.818989403546D-12 6.660000000000D+04
   -2.161236230469D+04-9.966087341309D-02 3.725290298462D-09 0.000000000000D+00
    1.344951953125D+04 2.661142349243D-01 9.313225746155D-10 6.000000000000D+00
    1.638312988281D+03-3.569902420044D+00-9.313225746155D-10 0.000000000000D+00
 5 21  5 26 18 45  0.0 7.246062159538D-05 9.094947017729D-13 6.660000000000D+04
   -1.082274511719D+04-1.965969085693D+00 1.862645149231D-09 0.000000000000D+00
    1.552320556641D+04 1.276468276978D+00 0.000000000000D+00 1.000000000000D+00
    1.710970703125D+04-2.405611038208D+00-2.793967723846D-09 0.000000000000D+00
 9 21  5 26 18 45  0.0-5.169771611691D-06 1.818989403546D-12 6.660000000000D+04
    6.814901367188D+03 1.327390670776D-01 0.000000000000D+00 0.000000000000D+00
    2.086301904297D+04 1.783089637756D+00 7.450580596924D-09-2.000000000000D+00
   -1.304473437500D+04 2.910480499268D+00-1.862645149231D-09 0.000000000000D+00
19 21  5 26 18 45  0.0-1.452760770917D-04-9.094947017729D-13 6.660000000000D+04
   -1.004007812500D+03-2.638060569763D+00 9.313225746155D-10 0.000000000000D+00
    1.130658544922D+04-1.690349578857D+00 5.587935447693D-09 3.000000000000D+00
   -2.284875097656D+04-7.207460403442D-01 0.000000000000D+00 0.000000000000D+00
20 21  5 26 18 45  0.0-4.980061203241D-05-0.000000000000D+00 6.660000000000D+04
    1.665068896484D+04-1.145565032959D+00-9.313225746155D-10 0.000000000000D+00
    1.600676855469D+04-9.812383651733D-01 6.519258022308D-09 2.000000000000D+00
   -1.087507324219D+04-3.193435668945D+00-1.862645149231D-09 0.000000000000D+00
16 21  5 26 19 15  0.0-1.556612551212D-05-9.094947017729D-13 6.840000000000D+04
   -6.483017578125D+02-9.871482849121D-02 1.862645149231D-09 0.000000000000D+00
    2.367007275391D+04-1.280962944031D+00 2.793967723846D-09-1.000000000000D+00
    9.296841308594D+03 3.258592605591D+00-3.725290298462D-09 0.000000000000D+00
 4 21  5 26 19 15  0.0 8.854642510414D-05 1.818989403546D-12 6.840000000000D+04
   -2.111336083984D+04 6.282262802124D-01 3.725290298462D-09 0.000000000000D+00
    1.348142529297D+04-2.628831863403D-01 9.313225746155D-10 6.000000000000D+00
   -4.767804687500D+03-3.501745223999D+00-0.000000000000D+00 0.000000000000D+00
 5 21  5 26 19 15  0.0 7.246155291796D-05 9.094947017729D-13 6.840000000000D+04
   -1.370544775391D+04-1.226909637451D+00 2.793967723846D-09 0.000000000000D+00
    1.773544287109D+04 1.136620521545D+00 0.000000000000D+00 1.000000000000D+00
    1.217424902344D+04-3.042699813843D+00-2.793967723846D-09 0.000000000000D+00
 9 21  5 26 19 15  0.0-5.166046321392D-06 2.728484105319D-12 6.840000000000D+04
    7.205431152344D+03 2.638359069824D-01 1.862645149231D-09 0.000000000000D+00
    2.336828515625D+04 9.809112548828D-01 6.519258022308D-09-2.000000000000D+00
   -7.370579101562D+03 3.353260040283D+00-2.793967723846D-09 0.000000000000D+00
15 21  5 26 19 15  0.0 1.036161556840D-04 0.000000000000D+00 6.840000000000D+04
   -9.237608886719D+03-3.641529083252D-01 9.313225746155D-10 0.000000000000D+00
    9.365947265625D+03-2.967586517334D+00-2.793967723846D-09 0.000000000000D+00
    2.187447607422D+04 1.117548942566D+00-1.862645149231D-09 0.000000000000D+00
19 21  5 26 19 15  0.0-1.452779397368D-04-9.094947017729D-13 6.840000000000D+04
   -6.043591308594D+03-2.915516853333D+00 1.862645149231D-09 0.000000000000D+00
    8.601476074219D+03-1.287957191467D+00 4.656612873077D-09 3.000000000000D+00
   -2.324674658203D+04 2.813920974731D-01 9.313225746155D-10 0.000000000000D+00
20 21  5 26 19 15  0.0-4.980154335499D-05-0.000000000000D+00 6.840000000000D+04
    1.386518164062D+04-1.938244819641D+00 0.000000000000D+00 0.000000000000D+00
    1.411005273438D+04-1.080843925476D+00 6.519258022308D-09 2.000000000000D+00
   -1.612966699219D+04-2.607131958008D+00-9.313225746155D-10 0.000000000000D+00
10 21  5 26 19 15  0.0-7.109250873327D-05-0.000000000000D+00 6.999000000000D+04
    1.135392773438D+04 4.876117706299D-01 0.000000000000D+00 0.000000000000D+00
    1.069954492188D+04 2.719134330750D+00 6.519258022308D-09-7.000000000000D+00
   -2.016625000000D+04 1.724044799805D+00-0.000000000000D+00 0.000000000000D+00
16 21  5 26 19 45  0.0-1.556891947985D-05-9.094947017729D-13 7.020000000000D+04
   -1.163174316406D+03-5.004262924194D-01 1.862645149231D-09 0.000000000000D+00
    2.071856005859D+04-1.963984489441D+00 9.313225746155D-10-1.000000000000D+00
    1.472359960938D+04 2.731735229492D+00-3.725290298462D-09 0.000000000000D+00
 4 21  5 26 19 45  0.0 8.854921907187D-05 1.818989403546D-12 7.020000000000D+04
   -1.946960498047D+04 1.159195899963D+00 3.725290298462D-09 0.000000000000D+00
    1.241209423828D+04-9.426221847534D-01 0.000000000000D+00 6.000000000000D+00
   -1.080481054688D+04-3.162369728088D+00 0.000000000000D+00 0.000000000000D+00
 5 21  5 26 19 45  0.0 7.246248424053D-05 9.094947017729D-13 7.020000000000D+04
   -1.523796582031D+04-4.849672317505D-01 3.725290298462D-09 0.000000000000D+00
    1.945513867188D+04 7.318267822266D-01 0.000000000000D+00 1.000000000000D+00
    6.297333984375D+03-3.444824218750D+00-1.862645149231D-09 0.000000000000D+00
 9 21  5 26 19 45  0.0-5.161389708519D-06 2.728484105319D-12 7.020000000000D+04
    7.622450683594D+03 1.592998504639D-01 2.793967723846D-09 0.000000000000D+00
    2.435700634766D+04 1.168460845947D-01 5.587935447693D-09-2.000000000000D+00
   -1.128556152344D+03 3.537445068359D+00-3.725290298462D-09 0.000000000000D+00
10 21  5 26 19 45  0.0-7.109344005585D-05-0.000000000000D+00 7.020000000000D+04
    1.247606103516D+04 7.263746261597D-01 1.862645149231D-09 0.000000000000D+00
    1.508430908203D+04 2.117530822754D+00 6.519258022308D-09-7.000000000000D+00
   -1.632225732422D+04 2.519429206848D+00-9.313225746155D-10 0.000000000000D+00
20 21  5 26 19 45  0.0-4.980247467756D-05-0.000000000000D+00 7.020000000000D+04
    9.748144531250D+03-2.606245994568D+00 1.862645149231D-09 0.000000000000D+00
    1.227137792969D+04-9.225473403931D-01 6.519258022308D-09 2.000000000000D+00
   -2.013951855469D+04-1.819302558899D+00-0.000000000000D+00 0.000000000000D+00
 6 21  5 26 19 45  0.0 1.986315473914D-04 0.000000000000D+00 7.098000000000D+04
    2.901972656250D+02-1.933382034302D+00 0.000000000000D+00 0.000000000000D+00
    1.446183642578D+04 2.130216598511D+00-0.000000000000D+00-4.000000000000D+00
    2.100092724609D+04-1.441685676575D+00-3.725290298462D-09 0.000000000000D+00
16 21  5 26 20 15  0.0-1.557078212500D-05-9.094947017729D-13 7.200000000000D+04
   -2.520971679688D+03-1.019880294800D+00 9.313225746155D-10 0.000000000000D+00
    1.674615820312D+04-2.404286384583D+00-9.313225746155D-10-1.000000000000D+00
    1.900347753906D+04 1.992753982544D+00-2.793967723846D-09 0.000000000000D+00
 4 21  5 26 20 15  0.0 8.855201303959D-05 1.818989403546D-12 7.200000000000D+04
   -1.709465917969D+04 1.434320449829D+00 3.725290298462D-09 0.000000000000D+00
    1.005800537109D+04-1.671890258789D+00 0.000000000000D+00 6.000000000000D+00
   -1.600476367188D+04-2.577691078186D+00 9.313225746155D-10 0.000000000000D+00
 5 21  5 26 20 15  0.0 7.246341556311D-05 9.094947017729D-13 7.200000000000D+04
   -1.551596386719D+04 1.499891281128D-01 3.725290298462D-09 0.000000000000D+00
    2.023319091797D+04 1.003475189209D-01-0.000000000000D+00 1.000000000000D+00
   -6.685400390625D+01-3.580537796021D+00-9.313225746155D-10 0.000000000000D+00
 6 21  5 26 20 15  0.0 1.986324787140D-04 0.000000000000D+00 7.200000000000D+04
   -2.666697265625D+03-1.340685844421D+00 1.862645149231D-09 0.000000000000D+00
    1.823064111328D+04 2.010083198547D+00-0.000000000000D+00-4.000000000000D+00
    1.762687304688D+04-2.282941818237D+00-3.725290298462D-09 0.000000000000D+00
 9 21  5 26 20 15  0.0-5.156733095646D-06 2.728484105319D-12 7.200000000000D+04
    7.639592773438D+03-1.759872436523D-01 2.793967723846D-09 0.000000000000D+00
    2.382008789062D+04-6.956367492676D-01 3.725290298462D-09-2.000000000000D+00
    5.200380859375D+03 3.449258804321D+00-3.725290298462D-09 0.000000000000D+00
